INTELSAT 902 (IS-902)   
1 26900U 01039A   26177.95269940 -.00000278  00000+0  00000+0 0  9993
2 26900   6.1409  71.6647 0004210  24.3825 111.8896  1.00271402 90797
INTELSAT 904 (IS-904)   
1 27380U 02007A   26177.94464319 -.00000221  00000+0  00000+0 0  9996
2 27380   6.9439  69.0692 0006537  11.1221 143.4540  1.00273068 51862
DIRECTV 5 (TEMPO 1)     
1 27426U 02023A   26177.80771402 -.00000050  00000+0  00000+0 0  9994
2 27426   4.9020  75.1948 0003536  24.2561 356.1505  1.00271562 88228
INTELSAT 905 (IS-905)   
1 27438U 02027A   26177.78103411  .00000098  00000+0  00000+0 0  9998
2 27438   6.7772  69.6863 0004138  26.4071 322.7696  1.00272022 51455
GALAXY 3C (G-3C)        
1 27445U 02030A   26177.57556810 -.00000145  00000+0  00000+0 0  9996
2 27445   3.7566  77.8583 0001951  25.1111 284.0945  1.00272391 46586
INTELSAT 906 (IS-906)   
1 27513U 02041A   26177.82086038  .00000019  00000+0  00000+0 0  9991
2 27513   5.8263  72.8033 0004205   7.3513 194.4364  1.00272159 87123
GALAXY 13 (HORIZONS-1)  
1 27954U 03044A   26177.70720218  .00000143  00000+0  00000+0 0  9994
2 27954   1.4432  83.7437 0001722   3.2702 292.3982  1.00269626 46660
INTELSAT 10-02          
1 28358U 04022A   26177.95034352  .00000000  00000+0  00000+0 0  9996
2 28358   0.0278 285.9445 0000170 182.9121 147.3314  1.00270793 80655
DIRECTV 8               
1 28659U 05019A   26177.92702926  .00000013  00000+0  00000+0 0  9997
2 28659   0.0218  69.5867 0003299  30.0038  30.1342  1.00271701 77175
GALAXY 28 (G-28)        
1 28702U 05022A   26177.95688265 -.00000192  00000+0  00000+0 0  9991
2 28702   3.3229  78.8140 0002277  16.8247 136.8136  1.00271032 52072
GALAXY 16 (G-16)        
1 29236U 06023A   26177.93118927 -.00000115  00000+0  00000+0 0  9992
2 29236   0.0429 124.6135 0002886 319.9629  66.6892  1.00272118 73070
DIRECTV 9S              
1 29494U 06043A   26177.93075594 -.00000104  00000+0  00000+0 0  9990
2 29494   2.4456  80.7957 0005418  18.7763  49.3464  1.00271892 51485
GALAXY 17 (G-17)        
1 31307U 07016B   26177.93396262 -.00000197  00000+0  00000+0 0  9997
2 31307   2.9963  79.7856 0004597  19.8064  66.6753  1.00271298 69907
INTELSAT 11 (IS-11)     
1 32253U 07044B   26177.89598615  .00000032  00000+0  00000+0 0  9997
2 32253   3.5904  78.5591 0003052  84.3111 157.8282  0.99047730 68546
HORIZONS-2              
1 32388U 07063B   26177.93621596 -.00000244  00000+0  00000+0 0  9993
2 32388   2.6269  80.5145 0004170   6.5483  91.2267  1.00271319 67916
DIRECTV 11              
1 32729U 08013A   26177.64600779 -.00000114  00000+0  00000+0 0  9992
2 32729   0.0095 299.9207 0000320 118.2566 349.9641  1.00269115 45685
GALAXY 18 (G-18)        
1 32951U 08024A   26177.92633593  .00000000  00000+0  00000+0 0  9995
2 32951   0.0257  17.2924 0003252  82.2711  25.9666  1.00269935 45956
GALAXY 19 (G-19)        
1 33376U 08045A   26177.57513477 -.00000128  00000+0  00000+0 0  9991
2 33376   0.0430 260.8617 0002899 203.0776 280.8068  1.00271325 64995
FM-5                    
1 35493U 09034A   26177.79108749 -.00000189  00000+0  00000+0 0  9995
2 35493   0.0251 289.7516 0000983  57.5069 126.2784  1.00271059 46740
INTELSAT 14 (IS-14)     
1 36097U 09064A   26177.95947914 -.00000262  00000+0  00000+0 0  9994
2 36097   0.0168  20.4615 0002688  74.8987 120.1312  1.00272477 60700
INTELSAT 15 (IS-15)     
1 36106U 09067A   26177.89633281 -.00000174  00000+0  00000+0 0  9992
2 36106   0.0132  45.1713 0002538  54.6488 223.0240  1.00271530 41320
DIRECTV 12              
1 36131U 09075A   26177.93040927 -.00000092  00000+0  00000+0 0  9992
2 36131   0.0139 117.2915 0000341   0.9038  29.0744  1.00271835 46657
INTELSAT 16 (IS-16)     
1 36397U 10006A   26177.97376066 -.00000233  00000+0  00000+0 0  9999
2 36397   0.0131  35.7998 0002421  73.6144  80.0292  1.00272290 59750
XM-5                    
1 37185U 10053A   26177.92798259 -.00000012  00000+0  00000+0 0  9999
2 37185   0.0649 271.4915 0002472 282.9250 299.5072  1.00271676 57586
INTELSAT 17 (IS-17)     
1 37238U 10065B   26177.86572287  .00000010  00000+0  00000+0 0  9992
2 37238   0.0108  77.4209 0002444  17.7881 197.4334  1.00271938 53346
INTELSAT 28 (IS-28)     
1 37392U 11016A   26177.94455653 -.00000215  00000+0  00000+0 0  9994
2 37392   1.8311  82.5123 0004032  12.2497 128.6077  1.00271571 53389
INTELSAT 18 (IS-18)     
1 37834U 11056A   26177.84558705  .00000065  00000+0  00000+0 0  9992
2 37834   0.0132 303.1799 0002080 156.8438 299.3459  1.00273146 53902
INTELSAT 22 (IS-22)     
1 38098U 12011A   26177.89381947  .00000000  00000+0  00000+0 0  9993
2 38098   0.0378  55.2192 0001788  73.8970 179.7788  1.00270708  7289
INTELSAT 19 (IS-19)     
1 38356U 12030A   26177.86919993 -.00000045  00000+0  00000+0 0  9996
2 38356   0.0171  18.5595 0003343  82.9517 292.3917  1.00271310 50546
INTELSAT 20 (IS-20)     
1 38740U 12043A   26177.53651163  .00000000  00000+0  00000+0 0  9993
2 38740   0.0380  69.0281 0002197 114.0266 353.2462  1.00270498 50843
INTELSAT 21 (IS-21)     
1 38749U 12045A   26177.96351833 -.00000273  00000+0  00000+0 0  9995
2 38749   0.0255  69.7199 0001839  38.0742  96.1537  1.00271681 50621
